CCSDS_OMM_VERS = 2.0
CREATION_DATE  = 
ORIGINATOR     = 

OBJECT_NAME    = STARLINK-36767
OBJECT_ID      = 2026-032T
CENTER_NAME    = EARTH
REF_FRAME      = TEME
TIME_SYSTEM    = UTC
MEAN_ELEMENT_THEORY = SGP/SGP4

EPOCH          = 2026-03-07T03:13:34.209408
MEAN_MOTION    = 15.75236828
ECCENTRICITY   = .0001638
INCLINATION    = 97.2845
RA_OF_ASC_NODE = 252.5304
ARG_OF_PERICENTER = 72.5366
MEAN_ANOMALY   = 287.6079

EPHEMERIS_TYPE = 0
CLASSIFICATION_TYPE = U
NORAD_CAT_ID   = 67814
ELEMENT_SET_NO = 999
REV_AT_EPOCH   = 438
BSTAR          = .8995E-3
MEAN_MOTION_DOT = .136479E-2
MEAN_MOTION_DDOT = 0

CCSDS_OMM_VERS = 2.0
CREATION_DATE  = 
ORIGINATOR     = 

OBJECT_NAME    = STARLINK-36797
OBJECT_ID      = 2026-032U
CENTER_NAME    = EARTH
REF_FRAME      = TEME
TIME_SYSTEM    = UTC
MEAN_ELEMENT_THEORY = SGP/SGP4

EPOCH          = 2026-03-07T03:00:51.905664
MEAN_MOTION    = 15.75239279
ECCENTRICITY   = .0001535
INCLINATION    = 97.2850
RA_OF_ASC_NODE = 252.5431
ARG_OF_PERICENTER = 76.3193
MEAN_ANOMALY   = 283.8243

EPHEMERIS_TYPE = 0
CLASSIFICATION_TYPE = U
NORAD_CAT_ID   = 67815
ELEMENT_SET_NO = 999
REV_AT_EPOCH   = 438
BSTAR          = .89889E-3
MEAN_MOTION_DOT = .136398E-2
MEAN_MOTION_DDOT = 0

CCSDS_OMM_VERS = 2.0
CREATION_DATE  = 
ORIGINATOR     = 

OBJECT_NAME    = STARLINK-36343
OBJECT_ID      = 2026-032V
CENTER_NAME    = EARTH
REF_FRAME      = TEME
TIME_SYSTEM    = UTC
MEAN_ELEMENT_THEORY = SGP/SGP4

EPOCH          = 2026-03-07T04:05:20.773248
MEAN_MOTION    = 15.79316517
ECCENTRICITY   = .0001461
INCLINATION    = 97.2830
RA_OF_ASC_NODE = 252.6344
ARG_OF_PERICENTER = 108.6251
MEAN_ANOMALY   = 251.5175

EPHEMERIS_TYPE = 0
CLASSIFICATION_TYPE = U
NORAD_CAT_ID   = 67816
ELEMENT_SET_NO = 999
REV_AT_EPOCH   = 439
BSTAR          = -.51619E-2
MEAN_MOTION_DOT = -.839392E-2
MEAN_MOTION_DDOT = 0

CCSDS_OMM_VERS = 2.0
CREATION_DATE  = 
ORIGINATOR     = 

OBJECT_NAME    = STARLINK-36756
OBJECT_ID      = 2026-032W
CENTER_NAME    = EARTH
REF_FRAME      = TEME
TIME_SYSTEM    = UTC
MEAN_ELEMENT_THEORY = SGP/SGP4

EPOCH          = 2026-03-07T02:48:09.626976
MEAN_MOTION    = 15.75224025
ECCENTRICITY   = .0001305
INCLINATION    = 97.2846
RA_OF_ASC_NODE = 252.5547
ARG_OF_PERICENTER = 70.1723
MEAN_ANOMALY   = 289.9683

EPHEMERIS_TYPE = 0
CLASSIFICATION_TYPE = U
NORAD_CAT_ID   = 67817
ELEMENT_SET_NO = 999
REV_AT_EPOCH   = 437
BSTAR          = .61205E-3
MEAN_MOTION_DOT = .92289E-3
MEAN_MOTION_DDOT = 0

CCSDS_OMM_VERS = 2.0
CREATION_DATE  = 
ORIGINATOR     = 

OBJECT_NAME    = STARLINK-36346
OBJECT_ID      = 2026-032X
CENTER_NAME    = EARTH
REF_FRAME      = TEME
TIME_SYSTEM    = UTC
MEAN_ELEMENT_THEORY = SGP/SGP4

EPOCH          = 2026-03-07T04:00:03.000096
MEAN_MOTION    = 15.77429862
ECCENTRICITY   = .0001857
INCLINATION    = 97.2843
RA_OF_ASC_NODE = 252.6437
ARG_OF_PERICENTER = 93.0068
MEAN_ANOMALY   = 273.9136

EPHEMERIS_TYPE = 0
CLASSIFICATION_TYPE = U
NORAD_CAT_ID   = 67818
ELEMENT_SET_NO = 999
REV_AT_EPOCH   = 437
BSTAR          = -.13578E-1
MEAN_MOTION_DOT = -.19425E-1
MEAN_MOTION_DDOT = 0

CCSDS_OMM_VERS = 2.0
CREATION_DATE  = 
ORIGINATOR     = 

OBJECT_NAME    = STARLINK-36788
OBJECT_ID      = 2026-032Y
CENTER_NAME    = EARTH
REF_FRAME      = TEME
TIME_SYSTEM    = UTC
MEAN_ELEMENT_THEORY = SGP/SGP4

EPOCH          = 2026-03-07T03:03:54.645984
MEAN_MOTION    = 15.75241219
ECCENTRICITY   = .000156
INCLINATION    = 97.2850
RA_OF_ASC_NODE = 252.5397
ARG_OF_PERICENTER = 57.1797
MEAN_ANOMALY   = 302.9618

EPHEMERIS_TYPE = 0
CLASSIFICATION_TYPE = U
NORAD_CAT_ID   = 67819
ELEMENT_SET_NO = 999
REV_AT_EPOCH   = 438
BSTAR          = .68619E-3
MEAN_MOTION_DOT = .103701E-2
MEAN_MOTION_DDOT = 0

CCSDS_OMM_VERS = 2.0
CREATION_DATE  = 
ORIGINATOR     = 

OBJECT_NAME    = STARLINK-36353
OBJECT_ID      = 2026-032Z
CENTER_NAME    = EARTH
REF_FRAME      = TEME
TIME_SYSTEM    = UTC
MEAN_ELEMENT_THEORY = SGP/SGP4

EPOCH          = 2026-03-07T02:58:19.371648
MEAN_MOTION    = 15.75255010
ECCENTRICITY   = .0001509
INCLINATION    = 97.2846
RA_OF_ASC_NODE = 252.5447
ARG_OF_PERICENTER = 66.8643
MEAN_ANOMALY   = 293.2781

EPHEMERIS_TYPE = 0
CLASSIFICATION_TYPE = U
NORAD_CAT_ID   = 67820
ELEMENT_SET_NO = 999
REV_AT_EPOCH   = 438
BSTAR          = .10975E-2
MEAN_MOTION_DOT = .167284E-2
MEAN_MOTION_DDOT = 0

CCSDS_OMM_VERS = 2.0
CREATION_DATE  = 
ORIGINATOR     = 

OBJECT_NAME    = STARLINK-36644
OBJECT_ID      = 2026-033A
CENTER_NAME    = EARTH
REF_FRAME      = TEME
TIME_SYSTEM    = UTC
MEAN_ELEMENT_THEORY = SGP/SGP4

EPOCH          = 2026-03-07T01:01:30.704736
MEAN_MOTION    = 15.82094673
ECCENTRICITY   = .000218
INCLINATION    = 42.9979
RA_OF_ASC_NODE = 287.7477
ARG_OF_PERICENTER = 262.2035
MEAN_ANOMALY   = 97.8589

EPHEMERIS_TYPE = 0
CLASSIFICATION_TYPE = U
NORAD_CAT_ID   = 67821
ELEMENT_SET_NO = 999
REV_AT_EPOCH   = 420
BSTAR          = .96064E-3
MEAN_MOTION_DOT = .207432E-2
MEAN_MOTION_DDOT = 0

CCSDS_OMM_VERS = 2.0
CREATION_DATE  = 
ORIGINATOR     = 

OBJECT_NAME    = STARLINK-36643
OBJECT_ID      = 2026-033B
CENTER_NAME    = EARTH
REF_FRAME      = TEME
TIME_SYSTEM    = UTC
MEAN_ELEMENT_THEORY = SGP/SGP4

EPOCH          = 2026-03-07T01:00:25.674912
MEAN_MOTION    = 15.82121365
ECCENTRICITY   = .0002501
INCLINATION    = 42.9975
RA_OF_ASC_NODE = 287.7414
ARG_OF_PERICENTER = 280.0976
MEAN_ANOMALY   = 79.9614

EPHEMERIS_TYPE = 0
CLASSIFICATION_TYPE = U
NORAD_CAT_ID   = 67822
ELEMENT_SET_NO = 999
REV_AT_EPOCH   = 420
BSTAR          = .11755E-2
MEAN_MOTION_DOT = .255706E-2
MEAN_MOTION_DDOT = 0

CCSDS_OMM_VERS = 2.0
CREATION_DATE  = 
ORIGINATOR     = 

OBJECT_NAME    = STARLINK-36646
OBJECT_ID      = 2026-033C
CENTER_NAME    = EARTH
REF_FRAME      = TEME
TIME_SYSTEM    = UTC
MEAN_ELEMENT_THEORY = SGP/SGP4

EPOCH          = 2026-03-07T00:59:21.156576
MEAN_MOTION    = 15.82122603
ECCENTRICITY   = .0002378
INCLINATION    = 42.9976
RA_OF_ASC_NODE = 287.7357
ARG_OF_PERICENTER = 279.5637
MEAN_ANOMALY   = 80.4966

EPHEMERIS_TYPE = 0
CLASSIFICATION_TYPE = U
NORAD_CAT_ID   = 67823
ELEMENT_SET_NO = 999
REV_AT_EPOCH   = 420
BSTAR          = .12913E-2
MEAN_MOTION_DOT = .281812E-2
MEAN_MOTION_DDOT = 0

CCSDS_OMM_VERS = 2.0
CREATION_DATE  = 
ORIGINATOR     = 

OBJECT_NAME    = STARLINK-36647
OBJECT_ID      = 2026-033D
CENTER_NAME    = EARTH
REF_FRAME      = TEME
TIME_SYSTEM    = UTC
MEAN_ELEMENT_THEORY = SGP/SGP4

EPOCH          = 2026-03-07T00:58:16.527648
MEAN_MOTION    = 15.82095197
ECCENTRICITY   = .0002334
INCLINATION    = 42.9977
RA_OF_ASC_NODE = 287.7296
ARG_OF_PERICENTER = 266.7123
MEAN_ANOMALY   = 93.3482

EPHEMERIS_TYPE = 0
CLASSIFICATION_TYPE = U
NORAD_CAT_ID   = 67824
ELEMENT_SET_NO = 999
REV_AT_EPOCH   = 420
BSTAR          = .10159E-2
MEAN_MOTION_DOT = .219712E-2
MEAN_MOTION_DDOT = 0

CCSDS_OMM_VERS = 2.0
CREATION_DATE  = 
ORIGINATOR     = 

OBJECT_NAME    = STARLINK-36648
OBJECT_ID      = 2026-033E
CENTER_NAME    = EARTH
REF_FRAME      = TEME
TIME_SYSTEM    = UTC
MEAN_ELEMENT_THEORY = SGP/SGP4

EPOCH          = 2026-03-07T00:57:11.669760
MEAN_MOTION    = 15.82087770
ECCENTRICITY   = .0002543
INCLINATION    = 42.9978
RA_OF_ASC_NODE = 287.7232
ARG_OF_PERICENTER = 279.0683
MEAN_ANOMALY   = 80.9901

EPHEMERIS_TYPE = 0
CLASSIFICATION_TYPE = U
NORAD_CAT_ID   = 67825
ELEMENT_SET_NO = 999
REV_AT_EPOCH   = 420
BSTAR          = .85386E-3
MEAN_MOTION_DOT = .183755E-2
MEAN_MOTION_DDOT = 0

